[{"OBJECT_NAME":"COSMOS 2242","OBJECT_ID":"1993-024A","EPOCH":"2026-03-05T14:58:48.084960","MEAN_MOTION":14.96528853,"ECCENTRICITY":0.0015446,"INCLINATION":82.5151,"RA_OF_ASC_NODE":270.6064,"ARG_OF_PERICENTER":323.5049,"MEAN_ANOMALY":36.5119,"EPHEMERIS_TYPE":0,"CLASSIFICATION_TYPE":"U","NORAD_CAT_ID":22626,"ELEMENT_SET_NO":999,"REV_AT_EPOCH":77978,"BSTAR":0.00021662,"MEAN_MOTION_DOT":2.493e-5,"MEAN_MOTION_DDOT":0},{"OBJECT_NAME":"SL-16 R/B","OBJECT_ID":"1993-059B","EPOCH":"2026-03-05T05:48:31.379904","MEAN_MOTION":14.17232284,"ECCENTRICITY":0.0018748,"INCLINATION":70.9922,"RA_OF_ASC_NODE":20.5044,"ARG_OF_PERICENTER":222.9016,"MEAN_ANOMALY":137.0647,"EPHEMERIS_TYPE":0,"CLASSIFICATION_TYPE":"U","NORAD_CAT_ID":22803,"ELEMENT_SET_NO":999,"REV_AT_EPOCH":67890,"BSTAR":-5.4664e-6,"MEAN_MOTION_DOT":-5.9e-7,"MEAN_MOTION_DDOT":0},{"OBJECT_NAME":"ARIANE 40 R/B","OBJECT_ID":"1993-061H","EPOCH":"2026-03-05T17:14:15.351072","MEAN_MOTION":14.32858647,"ECCENTRICITY":0.000962,"INCLINATION":98.4923,"RA_OF_ASC_NODE":133.684,"ARG_OF_PERICENTER":298.2066,"MEAN_ANOMALY":61.8146,"EPHEMERIS_TYPE":0,"CLASSIFICATION_TYPE":"U","NORAD_CAT_ID":22830,"ELEMENT_SET_NO":999,"REV_AT_EPOCH":69353,"BSTAR":0.00012174,"MEAN_MOTION_DOT":2.89e-6,"MEAN_MOTION_DDOT":0},{"OBJECT_NAME":"COSMOS 2278","OBJECT_ID":"1994-023A","EPOCH":"2026-03-05T16:59:23.704800","MEAN_MOTION":14.14377027,"ECCENTRICITY":0.0007763,"INCLINATION":71.0546,"RA_OF_ASC_NODE":183.4267,"ARG_OF_PERICENTER":21.1565,"MEAN_ANOMALY":338.9877,"EPHEMERIS_TYPE":0,"CLASSIFICATION_TYPE":"U","NORAD_CAT_ID":23087,"ELEMENT_SET_NO":999,"REV_AT_EPOCH":64424,"BSTAR":0.00016398,"MEAN_MOTION_DOT":2.67e-6,"MEAN_MOTION_DDOT":0},{"OBJECT_NAME":"SL-16 R/B","OBJECT_ID":"1994-023B","EPOCH":"2026-03-05T11:21:41.506848","MEAN_MOTION":14.15013187,"ECCENTRICITY":0.0005672,"INCLINATION":70.9986,"RA_OF_ASC_NODE":79.7425,"ARG_OF_PERICENTER":289.7929,"MEAN_ANOMALY":70.2581,"EPHEMERIS_TYPE":0,"CLASSIFICATION_TYPE":"U","NORAD_CAT_ID":23088,"ELEMENT_SET_NO":999,"REV_AT_EPOCH":64549,"BSTAR":-5.4485e-5,"MEAN_MOTION_DOT":-1.53e-6,"MEAN_MOTION_DDOT":0},{"OBJECT_NAME":"SL-16 R/B","OBJECT_ID":"1994-074B","EPOCH":"2026-03-05T16:16:00.715584","MEAN_MOTION":14.79402865,"ECCENTRICITY":0.0005501,"INCLINATION":97.7114,"RA_OF_ASC_NODE":95.6579,"ARG_OF_PERICENTER":225.8356,"MEAN_ANOMALY":249.4636,"EPHEMERIS_TYPE":0,"CLASSIFICATION_TYPE":"U","NORAD_CAT_ID":23343,"ELEMENT_SET_NO":999,"REV_AT_EPOCH":68665,"BSTAR":9.9908e-5,"MEAN_MOTION_DOT":6.96e-6,"MEAN_MOTION_DDOT":0},{"OBJECT_NAME":"SL-16 R/B","OBJECT_ID":"1994-077B","EPOCH":"2026-03-05T05:52:19.145856","MEAN_MOTION":14.15561763,"ECCENTRICITY":0.0003348,"INCLINATION":70.9851,"RA_OF_ASC_NODE":1.8393,"ARG_OF_PERICENTER":218.5508,"MEAN_ANOMALY":141.5376,"EPHEMERIS_TYPE":0,"CLASSIFICATION_TYPE":"U","NORAD_CAT_ID":23405,"ELEMENT_SET_NO":999,"REV_AT_EPOCH":61560,"BSTAR":-8.6331e-5,"MEAN_MOTION_DOT":-2.17e-6,"MEAN_MOTION_DDOT":0},{"OBJECT_NAME":"ARIANE 40+ R/B","OBJECT_ID":"1995-021B","EPOCH":"2026-03-05T17:25:45.399360","MEAN_MOTION":14.3976927,"ECCENTRICITY":0.0007473,"INCLINATION":98.4505,"RA_OF_ASC_NODE":136.2624,"ARG_OF_PERICENTER":147.1612,"MEAN_ANOMALY":323.9586,"EPHEMERIS_TYPE":0,"CLASSIFICATION_TYPE":"U","NORAD_CAT_ID":23561,"ELEMENT_SET_NO":999,"REV_AT_EPOCH":61867,"BSTAR":0.00014889,"MEAN_MOTION_DOT":4.23e-6,"MEAN_MOTION_DDOT":0},{"OBJECT_NAME":"SL-16 R/B","OBJECT_ID":"1995-058B","EPOCH":"2026-03-05T17:54:25.058304","MEAN_MOTION":14.15493138,"ECCENTRICITY":0.0010969,"INCLINATION":71.0213,"RA_OF_ASC_NODE":188.5336,"ARG_OF_PERICENTER":132.7336,"MEAN_ANOMALY":227.4712,"EPHEMERIS_TYPE":0,"CLASSIFICATION_TYPE":"U","NORAD_CAT_ID":23705,"ELEMENT_SET_NO":999,"REV_AT_EPOCH":56729,"BSTAR":8.5534e-5,"MEAN_MOTION_DOT":1.2e-6,"MEAN_MOTION_DDOT":0},{"OBJECT_NAME":"SL-16 R/B","OBJECT_ID":"1996-051B","EPOCH":"2026-03-05T16:54:08.273952","MEAN_MOTION":14.12414504,"ECCENTRICITY":0.0015422,"INCLINATION":70.7599,"RA_OF_ASC_NODE":183.6736,"ARG_OF_PERICENTER":154.065,"MEAN_ANOMALY":206.1246,"EPHEMERIS_TYPE":0,"CLASSIFICATION_TYPE":"U","NORAD_CAT_ID":24298,"ELEMENT_SET_NO":999,"REV_AT_EPOCH":52108,"BSTAR":9.299e-5,"MEAN_MOTION_DOT":1.23e-6,"MEAN_MOTION_DDOT":0},{"OBJECT_NAME":"ORBVIEW 2 (SEASTAR)","OBJECT_ID":"1997-037A","EPOCH":"2026-03-05T10:40:36.737760","MEAN_MOTION":14.35491436,"ECCENTRICITY":0.0003156,"INCLINATION":98.8558,"RA_OF_ASC_NODE":228.6443,"ARG_OF_PERICENTER":80.3835,"MEAN_ANOMALY":279.7706,"EPHEMERIS_TYPE":0,"CLASSIFICATION_TYPE":"U","NORAD_CAT_ID":24883,"ELEMENT_SET_NO":999,"REV_AT_EPOCH":50786,"BSTAR":0.00017872,"MEAN_MOTION_DOT":4.67e-6,"MEAN_MOTION_DDOT":0},{"OBJECT_NAME":"SL-16 R/B","OBJECT_ID":"1998-043G","EPOCH":"2026-03-05T17:34:29.652096","MEAN_MOTION":14.26048615,"ECCENTRICITY":0.00104,"INCLINATION":98.8249,"RA_OF_ASC_NODE":18.0679,"ARG_OF_PERICENTER":31.3071,"MEAN_ANOMALY":328.8725,"EPHEMERIS_TYPE":0,"CLASSIFICATION_TYPE":"U","NORAD_CAT_ID":25400,"ELEMENT_SET_NO":999,"REV_AT_EPOCH":43842,"BSTAR":5.6835e-5,"MEAN_MOTION_DOT":9.1e-7,"MEAN_MOTION_DDOT":0},{"OBJECT_NAME":"SL-16 R/B","OBJECT_ID":"1998-045B","EPOCH":"2026-03-05T16:31:14.054304","MEAN_MOTION":14.16189129,"ECCENTRICITY":0.0006504,"INCLINATION":71.0114,"RA_OF_ASC_NODE":189.9878,"ARG_OF_PERICENTER":14.109,"MEAN_ANOMALY":346.0214,"EPHEMERIS_TYPE":0,"CLASSIFICATION_TYPE":"U","NORAD_CAT_ID":25407,"ELEMENT_SET_NO":999,"REV_AT_EPOCH":42653,"BSTAR":-3.1582e-5,"MEAN_MOTION_DOT":-1.1e-6,"MEAN_MOTION_DDOT":0},{"OBJECT_NAME":"ISS (ZARYA)","OBJECT_ID":"1998-067A","EPOCH":"2026-03-05T16:56:13.265376","MEAN_MOTION":15.48463204,"ECCENTRICITY":0.0008143,"INCLINATION":51.6315,"RA_OF_ASC_NODE":92.053,"ARG_OF_PERICENTER":160.3826,"MEAN_ANOMALY":199.7477,"EPHEMERIS_TYPE":0,"CLASSIFICATION_TYPE":"U","NORAD_CAT_ID":25544,"ELEMENT_SET_NO":999,"REV_AT_EPOCH":55571,"BSTAR":0.00017141,"MEAN_MOTION_DOT":8.837e-5,"MEAN_MOTION_DDOT":0},{"OBJECT_NAME":"CZ-4B R/B","OBJECT_ID":"1999-025C","EPOCH":"2026-03-05T17:22:28.562016","MEAN_MOTION":14.18264521,"ECCENTRICITY":0.0036967,"INCLINATION":98.6634,"RA_OF_ASC_NODE":109.0993,"ARG_OF_PERICENTER":358.0685,"MEAN_ANOMALY":110.0549,"EPHEMERIS_TYPE":0,"CLASSIFICATION_TYPE":"U","NORAD_CAT_ID":25732,"ELEMENT_SET_NO":999,"REV_AT_EPOCH":38760,"BSTAR":5.791e-5,"MEAN_MOTION_DOT":7.7e-7,"MEAN_MOTION_DDOT":0},{"OBJECT_NAME":"OKEAN-O","OBJECT_ID":"1999-039A","EPOCH":"2026-03-05T17:33:25.862976","MEAN_MOTION":14.80328292,"ECCENTRICITY":0.000138,"INCLINATION":97.9449,"RA_OF_ASC_NODE":124.6631,"ARG_OF_PERICENTER":70.3542,"MEAN_ANOMALY":289.7819,"EPHEMERIS_TYPE":0,"CLASSIFICATION_TYPE":"U","NORAD_CAT_ID":25860,"ELEMENT_SET_NO":999,"REV_AT_EPOCH":43380,"BSTAR":0.00013182,"MEAN_MOTION_DOT":9.53e-6,"MEAN_MOTION_DDOT":0},{"OBJECT_NAME":"SL-16 R/B","OBJECT_ID":"1999-039B","EPOCH":"2026-03-05T17:09:48.265344","MEAN_MOTION":14.8172553,"ECCENTRICITY":0.0013431,"INCLINATION":97.9973,"RA_OF_ASC_NODE":123.8176,"ARG_OF_PERICENTER":270.3696,"MEAN_ANOMALY":89.5978,"EPHEMERIS_TYPE":0,"CLASSIFICATION_TYPE":"U","NORAD_CAT_ID":25861,"ELEMENT_SET_NO":999,"REV_AT_EPOCH":43627,"BSTAR":0.00011296,"MEAN_MOTION_DOT":8.37e-6,"MEAN_MOTION_DDOT":0}]
